id;hubspot_company_id;name;domain;industry;address;city;state;zip;phone;website;raw_properties;created_at;updated_at;synced_at
5ce457af-0ce9-4a87-9854-4d289bb9734a;266112214721;JTE Real Estate Services;jterealestateservices.com;REAL_ESTATE;323 Weston Avenue;Aurora;Illinois;60505;	+16303404998;https://jterealestateservices.com;"{""address"":""323 Weston Avenue"",""city"":""Aurora"",""createdate"":""2026-01-21T10:12:35.063Z"",""domain"":""jterealestateservices.com"",""hs_lastmodifieddate"":""2026-01-21T10:12:35.705Z"",""hs_object_id"":""266112214721"",""industry"":""REAL_ESTATE"",""name"":""JTE Real Estate Services"",""phone"":""+16303404998"",""state"":""Illinois"",""website"":""https://jterealestateservices.com"",""zip"":""60505""}";2026-01-21 10:12:38.056956+00;2026-01-21 10:12:38.056956+00;2026-01-21 10:12:37.801+00
b571eed0-6416-49b5-a536-b63d1ff00323;265878622921;;lenoirmillsnc.com;;;;;;;lenoirmillsnc.com;"{""address"":null,""city"":null,""createdate"":""2026-01-21T17:35:43.917Z"",""domain"":""lenoirmillsnc.com"",""hs_lastmodifieddate"":""2026-01-21T17:35:44.549Z"",""hs_object_id"":""265878622921"",""industry"":null,""name"":null,""phone"":null,""state"":null,""website"":""lenoirmillsnc.com"",""zip"":null}";2026-01-21 17:35:46.250307+00;2026-01-21 17:35:46.250307+00;2026-01-21 17:35:46.081+00
6848ed2a-d506-43f6-bdbc-80cb0ba6d60d;266840846070;Bettencourt Construction;bettencourtconstruction.com;CONSTRUCTION;6798 Crosswinds Drive North;St. Petersburg;Florida;33710;;bettencourtconstruction.com;"{""address"":""6798 Crosswinds Drive North"",""city"":""St. Petersburg"",""createdate"":""2026-01-21T17:59:53.693Z"",""domain"":""bettencourtconstruction.com"",""hs_lastmodifieddate"":""2026-01-21T17:59:54.291Z"",""hs_object_id"":""266840846070"",""industry"":""CONSTRUCTION"",""name"":""Bettencourt Construction"",""phone"":null,""state"":""Florida"",""website"":""bettencourtconstruction.com"",""zip"":""33710""}";2026-01-21 17:59:55.547536+00;2026-01-21 17:59:55.547536+00;2026-01-21 17:59:55.424+00
9aae0de4-8343-4cbb-9b83-744fa370fd7e;265926561495;Green Street;greenstreet.nyc;COMMERCIAL_REAL_ESTATE;;New York;New York;10001;	+19178534721;https://greenstreet.nyc;"{""address"":null,""city"":""New York"",""createdate"":""2026-01-22T09:47:35.308Z"",""domain"":""greenstreet.nyc"",""hs_lastmodifieddate"":""2026-01-22T09:47:35.843Z"",""hs_object_id"":""265926561495"",""industry"":""COMMERCIAL_REAL_ESTATE"",""name"":""Green Street"",""phone"":""+19178534721"",""state"":""New York"",""website"":""https://greenstreet.nyc"",""zip"":""10001""}";2026-01-22 09:47:38.731671+00;2026-01-22 09:47:38.731671+00;2026-01-22 09:47:38.541+00
89fcbcb6-4ab6-404c-ba8c-77307930a413;265926561502;Gomes Group;bygomes.com;REAL_ESTATE;254-270 Orange Street;Newark;New Jersey;07103;	+19737320125;https://bygomes.com;"{""address"":""254-270 Orange Street"",""city"":""Newark"",""createdate"":""2026-01-22T09:54:12.003Z"",""domain"":""bygomes.com"",""hs_lastmodifieddate"":""2026-01-22T09:54:12.522Z"",""hs_object_id"":""265926561502"",""industry"":""REAL_ESTATE"",""name"":""Gomes Group"",""phone"":""+19737320125"",""state"":""New Jersey"",""website"":""https://bygomes.com"",""zip"":""07103""}";2026-01-22 09:54:14.609275+00;2026-01-22 09:54:14.609275+00;2026-01-22 09:54:14.473+00
7258bfca-8d6a-435f-a08f-648d17463223;267934730972;ArtHaus Partners;arthauspartners.com;COMMERCIAL_REAL_ESTATE;;Oakland;CA;33154;	+14153919800;https://arthauspartners.com;"{""address"":null,""city"":""Oakland"",""createdate"":""2026-01-22T12:30:47.972Z"",""domain"":""arthauspartners.com"",""hs_lastmodifieddate"":""2026-01-22T12:30:48.545Z"",""hs_object_id"":""267934730972"",""industry"":""COMMERCIAL_REAL_ESTATE"",""name"":""ArtHaus Partners"",""phone"":""+14153919800"",""state"":""CA"",""website"":""https://arthauspartners.com"",""zip"":""33154""}";2026-01-22 12:30:50.739158+00;2026-01-22 12:30:50.739158+00;2026-01-22 12:30:50.241+00
b211c729-f6f0-472d-97d5-67a001c22eb3;266112264928;Pracon;praconglobalinvest.com;BUSINESS_SUPPLIES_AND_EQUIPMENT;3220 North State Street;Jackson;Mississippi;39216;	+16012918275;https://www.praconglobalinvest.com;"{""address"":""3220 North State Street"",""city"":""Jackson"",""createdate"":""2026-01-22T12:37:51.935Z"",""domain"":""praconglobalinvest.com"",""hs_lastmodifieddate"":""2026-01-22T12:37:52.291Z"",""hs_object_id"":""266112264928"",""industry"":""BUSINESS_SUPPLIES_AND_EQUIPMENT"",""name"":""Pracon"",""phone"":""+16012918275"",""state"":""Mississippi"",""website"":""https://www.praconglobalinvest.com"",""zip"":""39216""}";2026-01-22 12:37:54.214353+00;2026-01-22 12:37:54.214353+00;2026-01-22 12:37:54.043+00
8f50e68c-a5d8-4d39-97c0-552b7a8b6759;267965373158;Western Pulp;westernpulp.com;PAPER_FOREST_PRODUCTS;5025 SW Hout St;Corvallis;Oregon;97333;	+15417571151;westernpulp.com;"{""address"":""5025 SW Hout St"",""city"":""Corvallis"",""createdate"":""2026-01-22T14:36:17.866Z"",""domain"":""westernpulp.com"",""hs_lastmodifieddate"":""2026-01-22T14:36:18.256Z"",""hs_object_id"":""267965373158"",""industry"":""PAPER_FOREST_PRODUCTS"",""name"":""Western Pulp"",""phone"":""+15417571151"",""state"":""Oregon"",""website"":""westernpulp.com"",""zip"":""97333""}";2026-01-22 14:36:20.723461+00;2026-01-22 14:36:20.723461+00;2026-01-22 14:36:20.273+00
ed041e3f-4fdc-449c-8558-a67d15269425;268073537261;;odinprop.com;;;;;;;odinprop.com;"{""address"":null,""city"":null,""createdate"":""2026-01-22T17:53:16.479Z"",""domain"":""odinprop.com"",""hs_lastmodifieddate"":""2026-01-22T17:53:17.991Z"",""hs_object_id"":""268073537261"",""industry"":null,""name"":null,""phone"":null,""state"":null,""website"":""odinprop.com"",""zip"":null}";2026-01-22 17:53:19.190739+00;2026-01-22 17:53:19.190739+00;2026-01-22 17:53:18.678+00
7576cd69-4918-4b13-974c-38ff19c295fa;265926617842;Essence Development;essencedev.com;;6 Greene Street;New York;New York;10013;;essencedev.com;"{""address"":""6 Greene Street"",""city"":""New York"",""createdate"":""2026-01-23T10:06:55.490Z"",""domain"":""essencedev.com"",""hs_lastmodifieddate"":""2026-01-23T10:06:56.030Z"",""hs_object_id"":""265926617842"",""industry"":null,""name"":""Essence Development"",""phone"":null,""state"":""New York"",""website"":""essencedev.com"",""zip"":""10013""}";2026-01-23 10:06:58.811774+00;2026-01-23 10:06:58.811774+00;2026-01-23 10:06:58.68+00
065c4e38-9b4f-4b2a-8b5d-a0e80678b2b7;267998906072;North Coast Design Build;northcoastdesignbuild.com;REAL_ESTATE;4205 Lake Road;Sheffield Lake;Ohio;44054;	+13059611115;https://midtown-capital.com;"{""address"":""4205 Lake Road"",""city"":""Sheffield Lake"",""createdate"":""2026-01-23T12:35:38.390Z"",""domain"":""northcoastdesignbuild.com"",""hs_lastmodifieddate"":""2026-01-23T12:35:38.767Z"",""hs_object_id"":""267998906072"",""industry"":""REAL_ESTATE"",""name"":""North Coast Design Build"",""phone"":""+13059611115"",""state"":""Ohio"",""website"":""https://midtown-capital.com"",""zip"":""44054""}";2026-01-23 12:35:40.796128+00;2026-01-23 12:35:40.796128+00;2026-01-23 12:35:40.619+00
a4aa2632-578e-4de8-a5de-7f995aeefec0;267998906076;Canopy Development;canopydevelopment.com;REAL_ESTATE;126 Main St;Norfolk;VA;01060;	+17572062589;https://www.canopydevelopment.com;"{""address"":""126 Main St"",""city"":""Norfolk"",""createdate"":""2026-01-23T12:42:14.674Z"",""domain"":""canopydevelopment.com"",""hs_lastmodifieddate"":""2026-01-23T12:42:15.273Z"",""hs_object_id"":""267998906076"",""industry"":""REAL_ESTATE"",""name"":""Canopy Development"",""phone"":""+17572062589"",""state"":""VA"",""website"":""https://www.canopydevelopment.com"",""zip"":""01060""}";2026-01-23 12:42:16.846933+00;2026-01-23 12:42:16.846933+00;2026-01-23 12:42:16.696+00
04e4bec4-1cc7-4032-ba94-40b6c94ad19d;268898265807;Pacific Development Group;pacificdg.com;CONSUMER_SERVICES;343 East Main Street;Stockton;California;95202;	+12094739700;pacificdg.com;"{""address"":""343 East Main Street"",""city"":""Stockton"",""createdate"":""2026-01-23T14:56:09.361Z"",""domain"":""pacificdg.com"",""hs_lastmodifieddate"":""2026-01-23T14:56:10.059Z"",""hs_object_id"":""268898265807"",""industry"":""CONSUMER_SERVICES"",""name"":""Pacific Development Group"",""phone"":""+12094739700"",""state"":""California"",""website"":""pacificdg.com"",""zip"":""95202""}";2026-01-23 14:56:11.811521+00;2026-01-23 14:56:11.811521+00;2026-01-23 14:56:11.336+00
ed16b4c7-bc68-4c70-a320-db542bca9051;269229107898;Fourth River Development;fourthriverdevelopment.com;CONSTRUCTION;5168 Campbells Run Road;Pittsburgh;Pennsylvania;15205;	+13052981916;https://www.rjcapny.com;"{""address"":""5168 Campbells Run Road"",""city"":""Pittsburgh"",""createdate"":""2026-01-26T10:54:26.474Z"",""domain"":""fourthriverdevelopment.com"",""hs_lastmodifieddate"":""2026-01-26T10:54:26.846Z"",""hs_object_id"":""269229107898"",""industry"":""CONSTRUCTION"",""name"":""Fourth River Development"",""phone"":""+13052981916"",""state"":""Pennsylvania"",""website"":""https://www.rjcapny.com"",""zip"":""15205""}";2026-01-26 10:54:29.84511+00;2026-01-26 10:54:29.84511+00;2026-01-26 10:54:29.616+00
9ac21e7d-6a6a-4180-b949-e18778534193;271615605470;;riseunlock.com;;;;;;;riseunlock.com;"{""address"":null,""city"":null,""createdate"":""2026-01-26T15:04:14.023Z"",""domain"":""riseunlock.com"",""hs_lastmodifieddate"":""2026-01-26T15:04:14.472Z"",""hs_object_id"":""271615605470"",""industry"":null,""name"":null,""phone"":null,""state"":null,""website"":""riseunlock.com"",""zip"":null}";2026-01-26 15:04:16.060708+00;2026-01-26 15:04:16.060708+00;2026-01-26 15:04:15.927+00
d6c5c1a6-7c20-456a-9b0c-62abdda87383;271925346028;Rogers Equities;;REAL_ESTATE;;New York;New York;10003;	+13059171070;;"{""address"":null,""city"":""New York"",""createdate"":""2026-01-27T09:51:51.099Z"",""domain"":null,""hs_lastmodifieddate"":""2026-01-27T09:51:51.099Z"",""hs_object_id"":""271925346028"",""industry"":""REAL_ESTATE"",""name"":""Rogers Equities"",""phone"":""+13059171070"",""state"":""New York"",""website"":null,""zip"":""10003""}";2026-01-27 09:51:53.752841+00;2026-01-27 09:51:53.752841+00;2026-01-27 09:51:53.266+00
3e417993-e9e8-4794-92b9-b68d75869905;271926061789;Elmo Realty;;;;New York;NY;;;;"{""address"":null,""city"":""New York"",""createdate"":""2026-01-27T10:07:31.540Z"",""domain"":null,""hs_lastmodifieddate"":""2026-01-27T10:07:31.540Z"",""hs_object_id"":""271926061789"",""industry"":null,""name"":""Elmo Realty"",""phone"":null,""state"":""NY"",""website"":null,""zip"":null}";2026-01-27 10:07:34.116969+00;2026-01-27 10:07:34.116969+00;2026-01-27 10:07:33.613+00
ad1f0c27-8979-4668-a915-fa5703123b82;272489695934;Gaslight Property;gaslightproperty.com;REAL_ESTATE;311 Howell Avenue;Cincinnati;Ohio;45220;	+15136403130;https://www.gaslightproperty.com;"{""address"":""311 Howell Avenue"",""city"":""Cincinnati"",""createdate"":""2026-01-28T08:00:57.494Z"",""domain"":""gaslightproperty.com"",""hs_lastmodifieddate"":""2026-01-28T08:00:58.001Z"",""hs_object_id"":""272489695934"",""industry"":""REAL_ESTATE"",""name"":""Gaslight Property"",""phone"":""+15136403130"",""state"":""Ohio"",""website"":""https://www.gaslightproperty.com"",""zip"":""45220""}";2026-01-28 08:01:01.546144+00;2026-01-28 08:01:01.546144+00;2026-01-28 08:01:01.356+00
bfb95850-ef17-436d-a54b-1b31673e6f24;272489695964;BellaVista Homes;mybellavista.com;REAL_ESTATE;711 North Orlando Avenue;Maitland;Florida;32751;	+16106443090;https://radnorproperty.com;"{""address"":""711 North Orlando Avenue"",""city"":""Maitland"",""createdate"":""2026-01-28T08:18:19.501Z"",""domain"":""mybellavista.com"",""hs_lastmodifieddate"":""2026-01-28T08:18:20.117Z"",""hs_object_id"":""272489695964"",""industry"":""REAL_ESTATE"",""name"":""BellaVista Homes"",""phone"":""+16106443090"",""state"":""Florida"",""website"":""https://radnorproperty.com"",""zip"":""32751""}";2026-01-28 08:18:22.31144+00;2026-01-28 08:18:22.31144+00;2026-01-28 08:18:21.746+00
3b81c26d-ebb2-47ef-b0a8-9945abb2b0d2;272787867367;Blóm Capital;blomcapital.com;;;;NJ;;;https://blomcapital.com;"{""address"":null,""city"":null,""createdate"":""2026-01-28T09:00:46.005Z"",""domain"":""blomcapital.com"",""hs_lastmodifieddate"":""2026-01-28T09:00:46.432Z"",""hs_object_id"":""272787867367"",""industry"":null,""name"":""Blóm Capital"",""phone"":null,""state"":""NJ"",""website"":""https://blomcapital.com"",""zip"":null}";2026-01-28 09:00:48.493125+00;2026-01-28 09:00:48.493125+00;2026-01-28 09:00:48.363+00
5b713201-0840-44a6-b93e-1c8bb033b7f3;272787868363;HB Nitkin;hbnitkin.com;REAL_ESTATE;230 Mason St;Greenwich;Connecticut;06830;	+12038619000;https://hbnitkin.com;"{""address"":""230 Mason St"",""city"":""Greenwich"",""createdate"":""2026-01-28T09:26:02.197Z"",""domain"":""hbnitkin.com"",""hs_lastmodifieddate"":""2026-01-28T09:26:02.677Z"",""hs_object_id"":""272787868363"",""industry"":""REAL_ESTATE"",""name"":""HB Nitkin"",""phone"":""+12038619000"",""state"":""Connecticut"",""website"":""https://hbnitkin.com"",""zip"":""06830""}";2026-01-28 09:26:05.080379+00;2026-01-28 09:26:05.080379+00;2026-01-28 09:26:04.61+00
b0daa24d-91f8-422e-9697-c1996ae153af;272633767652;Silver Hills RE;silverhillsre.com;COMMERCIAL_REAL_ESTATE;;;Ohio;;	+18663165300;https://www.silverhillsre.com;"{""address"":null,""city"":null,""createdate"":""2026-01-28T09:35:10.623Z"",""domain"":""silverhillsre.com"",""hs_lastmodifieddate"":""2026-01-28T09:35:11.199Z"",""hs_object_id"":""272633767652"",""industry"":""COMMERCIAL_REAL_ESTATE"",""name"":""Silver Hills RE"",""phone"":""+18663165300"",""state"":""Ohio"",""website"":""https://www.silverhillsre.com"",""zip"":null}";2026-01-28 09:35:13.795091+00;2026-01-28 09:35:13.795091+00;2026-01-28 09:35:13.262+00
77b2bc3a-cde4-4dfd-8abd-021abc12d832;273780442856;Vida Capital;vidacapital.co;INVESTMENT_MANAGEMENT;835 West 6th Street;Bayonne;NJ;78703;	+1 201-344-0070;https://www.vidacapital.co;"{""address"":""835 West 6th Street"",""city"":""Bayonne"",""createdate"":""2026-01-29T08:03:58.601Z"",""domain"":""vidacapital.co"",""hs_lastmodifieddate"":""2026-01-29T08:04:00.394Z"",""hs_object_id"":""273780442856"",""industry"":""INVESTMENT_MANAGEMENT"",""name"":""Vida Capital"",""phone"":""+1 201-344-0070"",""state"":""NJ"",""website"":""https://www.vidacapital.co"",""zip"":""78703""}";2026-01-29 08:04:02.389941+00;2026-01-29 08:04:02.389941+00;2026-01-29 08:04:02.242+00
c017e0a4-65bd-4f24-a2e4-9969d68ce5cf;274337090265;Southeast Capital Partners;secapitalpartners.com;COMMERCIAL_REAL_ESTATE;110 North Wacker Drive;Atlanta;GA;60606;;https://secapitalpartners.com;"{""address"":""110 North Wacker Drive"",""city"":""Atlanta"",""createdate"":""2026-01-29T09:28:19.661Z"",""domain"":""secapitalpartners.com"",""hs_lastmodifieddate"":""2026-01-29T09:28:20.115Z"",""hs_object_id"":""274337090265"",""industry"":""COMMERCIAL_REAL_ESTATE"",""name"":""Southeast Capital Partners"",""phone"":null,""state"":""GA"",""website"":""https://secapitalpartners.com"",""zip"":""60606""}";2026-01-29 09:28:22.596692+00;2026-01-29 09:28:22.596692+00;2026-01-29 09:28:22.075+00
e9694c86-bd7e-4489-88b4-5f1395a06313;274334214843;GreenMars;greenmars.com;REAL_ESTATE;30 Exchange Street;Portland;Maine;04101;	+12072457255;https://greenmars.com;"{""address"":""30 Exchange Street"",""city"":""Portland"",""createdate"":""2026-01-29T09:49:15.766Z"",""domain"":""greenmars.com"",""hs_lastmodifieddate"":""2026-01-29T09:49:16.196Z"",""hs_object_id"":""274334214843"",""industry"":""REAL_ESTATE"",""name"":""GreenMars"",""phone"":""+12072457255"",""state"":""Maine"",""website"":""https://greenmars.com"",""zip"":""04101""}";2026-01-29 09:49:18.316377+00;2026-01-29 09:49:18.316377+00;2026-01-29 09:49:18.068+00
07279998-fa7c-4d40-b61c-a27563a25f94;274405906161;Homestead Companies ;;CONSTRUCTION;;Columbus;OH;43215;	+16142215400;;"{""address"":null,""city"":""Columbus"",""createdate"":""2026-01-29T17:38:34.141Z"",""domain"":null,""hs_lastmodifieddate"":""2026-01-29T17:38:34.141Z"",""hs_object_id"":""274405906161"",""industry"":""CONSTRUCTION"",""name"":""Homestead Companies "",""phone"":""+16142215400"",""state"":""OH"",""website"":null,""zip"":""43215""}";2026-01-29 17:38:36.103036+00;2026-01-29 17:38:36.103036+00;2026-01-29 17:38:35.972+00
1bd581f3-3633-4639-b736-fd0beec51c96;274799045320;Bogan Developments;bogandevelopments.com;COMMERCIAL_REAL_ESTATE;801 North Pitcher Street;Kalamazoo;Michigan;49007;	+18663165300;https://bogandevelopments.com;"{""address"":""801 North Pitcher Street"",""city"":""Kalamazoo"",""createdate"":""2026-01-30T10:02:03.133Z"",""domain"":""bogandevelopments.com"",""hs_lastmodifieddate"":""2026-01-30T10:02:04.160Z"",""hs_object_id"":""274799045320"",""industry"":""COMMERCIAL_REAL_ESTATE"",""name"":""Bogan Developments"",""phone"":""+18663165300"",""state"":""Michigan"",""website"":""https://bogandevelopments.com"",""zip"":""49007""}";2026-01-30 10:02:07.39299+00;2026-01-30 10:02:07.39299+00;2026-01-30 10:02:06.854+00
0a195891-8484-4d50-bc87-1f7db5697622;278006271706;River North Real Estate Partners;rnrepartners.com;;2045 River North Run;Atlanta;Georgia;30328;;rnrepartners.com;"{""address"":""2045 River North Run"",""city"":""Atlanta"",""createdate"":""2026-02-02T02:11:37.083Z"",""domain"":""rnrepartners.com"",""hs_lastmodifieddate"":""2026-02-02T02:11:37.627Z"",""hs_object_id"":""278006271706"",""industry"":null,""name"":""River North Real Estate Partners"",""phone"":null,""state"":""Georgia"",""website"":""rnrepartners.com"",""zip"":""30328""}";2026-02-02 02:11:40.473817+00;2026-02-02 02:11:40.473817+00;2026-02-02 02:11:39.978+00
2cce3d0e-e924-425f-b6ba-edc5389a897e;279806997186;Valiant Group;valiantgroup.com;COMMERCIAL_REAL_ESTATE;800 North Milpas Street;Springfield;MO;93103;	+16503782800;;"{""address"":""800 North Milpas Street"",""city"":""Springfield"",""createdate"":""2026-02-02T04:20:19.251Z"",""domain"":""valiantgroup.com"",""hs_lastmodifieddate"":""2026-02-02T04:20:19.527Z"",""hs_object_id"":""279806997186"",""industry"":""COMMERCIAL_REAL_ESTATE"",""name"":""Valiant Group"",""phone"":""+16503782800"",""state"":""MO"",""website"":null,""zip"":""93103""}";2026-02-02 04:20:21.49285+00;2026-02-02 04:20:21.49285+00;2026-02-02 04:20:21.384+00
8c719209-4473-4351-8fa6-81435bb8a00c;279806997210;Boston Real Estate Capital;bostonrealestatecapital.com;COMMERCIAL_REAL_ESTATE;10 Post Office Square;Boston;Massachusetts;02109;	+16178509002;https://bostonrealestatecapital.com;"{""address"":""10 Post Office Square"",""city"":""Boston"",""createdate"":""2026-02-02T04:35:31.128Z"",""domain"":""bostonrealestatecapital.com"",""hs_lastmodifieddate"":""2026-02-02T04:35:31.645Z"",""hs_object_id"":""279806997210"",""industry"":""COMMERCIAL_REAL_ESTATE"",""name"":""Boston Real Estate Capital"",""phone"":""+16178509002"",""state"":""Massachusetts"",""website"":""https://bostonrealestatecapital.com"",""zip"":""02109""}";2026-02-02 04:35:33.442061+00;2026-02-02 04:35:33.442061+00;2026-02-02 04:35:33.315+00
22fa76b4-20e9-4445-8a55-1191744ca686;279806997222;Build BW;buildbw.com;CONSTRUCTION;615 Russell Avenue;Indianapolis;Indiana;46225;;https://buildbw.com;"{""address"":""615 Russell Avenue"",""city"":""Indianapolis"",""createdate"":""2026-02-02T04:42:40.934Z"",""domain"":""buildbw.com"",""hs_lastmodifieddate"":""2026-02-02T04:42:41.318Z"",""hs_object_id"":""279806997222"",""industry"":""CONSTRUCTION"",""name"":""Build BW"",""phone"":null,""state"":""Indiana"",""website"":""https://buildbw.com"",""zip"":""46225""}";2026-02-02 04:42:42.749648+00;2026-02-02 04:42:42.749648+00;2026-02-02 04:42:42.609+00
bd073d2d-6a3e-4c79-868d-dfefb483c776;277204528844;The Ridge Group;ridgecorporation.com;;3225 S Hoyt Ave;Muncie;Indiana;47302;;ridgecorporation.com;"{""address"":""3225 S Hoyt Ave"",""city"":""Muncie"",""createdate"":""2026-02-02T13:15:01.920Z"",""domain"":""ridgecorporation.com"",""hs_lastmodifieddate"":""2026-02-02T13:15:02.284Z"",""hs_object_id"":""277204528844"",""industry"":null,""name"":""The Ridge Group"",""phone"":null,""state"":""Indiana"",""website"":""ridgecorporation.com"",""zip"":""47302""}";2026-02-02 13:15:04.810039+00;2026-02-02 13:15:04.810039+00;2026-02-02 13:15:04.321+00
ea6e7869-8b97-4631-bb01-1d4489482c2e;277204580073;New Urban Communities;newurbancommunities.com;Real Estate Development;398 NE 6th Ave;Delray Beach;Florida;33483;	+1 561-279-8706;https://newurbancommunities.com;"{""address"":""398 NE 6th Ave"",""city"":""Delray Beach"",""createdate"":""2026-02-03T10:59:58.938Z"",""domain"":""newurbancommunities.com"",""hs_lastmodifieddate"":""2026-02-03T10:59:59.293Z"",""hs_object_id"":""277204580073"",""industry"":""Real Estate Development"",""name"":""New Urban Communities"",""phone"":""+1 561-279-8706"",""state"":""Florida"",""website"":""https://newurbancommunities.com"",""zip"":""33483""}";2026-02-03 11:00:02.288045+00;2026-02-03 11:00:02.288045+00;2026-02-03 11:00:02.159+00
3ef7db56-c8d6-419e-a525-6d22d43532e7;282569285350;;coxandpalmer.com;;;;Newfoundland and Labrador;;	+19028533313;coxandpalmer.com;"{""address"":null,""city"":null,""createdate"":""2026-02-03T15:55:16.309Z"",""domain"":""coxandpalmer.com"",""hs_lastmodifieddate"":""2026-02-03T15:55:16.708Z"",""hs_object_id"":""282569285350"",""industry"":null,""name"":null,""phone"":""+19028533313"",""state"":""Newfoundland and Labrador"",""website"":""coxandpalmer.com"",""zip"":null}";2026-02-03 15:55:17.793792+00;2026-02-03 15:55:17.793792+00;2026-02-03 15:55:17.66+00
6f5fab52-8598-47ab-87be-734f4dcd2acd;280982752963;Ritchie's Management Group;ritchiesmg.com;REAL_ESTATE;361 Falls Road;Grafton;Wisconsin;53024;	+17158925591;ritchiesmg.com;"{""address"":""361 Falls Road"",""city"":""Grafton"",""createdate"":""2026-02-03T17:44:55.578Z"",""domain"":""ritchiesmg.com"",""hs_lastmodifieddate"":""2026-02-03T17:44:56.342Z"",""hs_object_id"":""280982752963"",""industry"":""REAL_ESTATE"",""name"":""Ritchie's Management Group"",""phone"":""+17158925591"",""state"":""Wisconsin"",""website"":""ritchiesmg.com"",""zip"":""53024""}";2026-02-03 17:44:57.63413+00;2026-02-03 17:44:57.63413+00;2026-02-03 17:44:57.497+00
f945cf19-4b09-469e-abc2-6a0d0042a23c;282647988927;Shanna Collective;shannacollective.com;REAL_ESTATE;;Jacksonville;АД;;	+1 718-463-5757;https://shannacollective.com;"{""address"":null,""city"":""Jacksonville"",""createdate"":""2026-02-04T09:24:14.439Z"",""domain"":""shannacollective.com"",""hs_lastmodifieddate"":""2026-02-04T09:24:14.992Z"",""hs_object_id"":""282647988927"",""industry"":""REAL_ESTATE"",""name"":""Shanna Collective"",""phone"":""+1 718-463-5757"",""state"":""АД"",""website"":""https://shannacollective.com"",""zip"":null}";2026-02-04 09:24:17.911516+00;2026-02-04 09:24:17.911516+00;2026-02-04 09:24:17.455+00
ba342d4c-a8a7-4d57-aacb-c87c5dd65730;283972146916;Ashland Capital Partners;ashlandcap.com;;;Chicago;Illinois;;;ashlandcap.com;"{""address"":null,""city"":""Chicago"",""createdate"":""2026-02-04T15:42:38.951Z"",""domain"":""ashlandcap.com"",""hs_lastmodifieddate"":""2026-02-04T15:42:39.446Z"",""hs_object_id"":""283972146916"",""industry"":null,""name"":""Ashland Capital Partners"",""phone"":null,""state"":""Illinois"",""website"":""ashlandcap.com"",""zip"":null}";2026-02-04 15:42:41.167498+00;2026-02-04 15:42:41.167498+00;2026-02-04 15:42:40.71+00
cb9a2494-a597-45ec-80ba-e63e4a69cd3d;284177135345;Asland Capital Partners;aslandcap.com;REAL_ESTATE;31 Hudson Yards;New York;New York;10001;	+12123904146;aslandcap.com;"{""address"":""31 Hudson Yards"",""city"":""New York"",""createdate"":""2026-02-04T16:08:34.552Z"",""domain"":""aslandcap.com"",""hs_lastmodifieddate"":""2026-02-04T16:08:35.038Z"",""hs_object_id"":""284177135345"",""industry"":""REAL_ESTATE"",""name"":""Asland Capital Partners"",""phone"":""+12123904146"",""state"":""New York"",""website"":""aslandcap.com"",""zip"":""10001""}";2026-02-04 16:08:37.683548+00;2026-02-04 16:08:37.683548+00;2026-02-04 16:08:37.56+00
b71b989a-3dc9-4ba6-8e28-c73e94f0a70e;284317334228;EJS Group;ejsdev.com;REAL_ESTATE;1700 Broadway;New York;New York;10019;	+12122871150;https://www.ejsdev.com;"{""address"":""1700 Broadway"",""city"":""New York"",""createdate"":""2026-02-05T07:58:19.665Z"",""domain"":""ejsdev.com"",""hs_lastmodifieddate"":""2026-02-05T07:58:20.104Z"",""hs_object_id"":""284317334228"",""industry"":""REAL_ESTATE"",""name"":""EJS Group"",""phone"":""+12122871150"",""state"":""New York"",""website"":""https://www.ejsdev.com"",""zip"":""10019""}";2026-02-05 07:58:23.164483+00;2026-02-05 07:58:23.164483+00;2026-02-05 07:58:22.691+00
f7b88b5a-2246-4b70-a304-8758405d4335;284317337308;Omega Home Builders;omegahomebuilders.com;CONSTRUCTION;2050 Bennett Road;Philadelphia;Pennsylvania;19116;	+12673178845;https://omegahomebuilders.com;"{""address"":""2050 Bennett Road"",""city"":""Philadelphia"",""createdate"":""2026-02-05T08:59:17.881Z"",""domain"":""omegahomebuilders.com"",""hs_lastmodifieddate"":""2026-02-05T08:59:18.526Z"",""hs_object_id"":""284317337308"",""industry"":""CONSTRUCTION"",""name"":""Omega Home Builders"",""phone"":""+12673178845"",""state"":""Pennsylvania"",""website"":""https://omegahomebuilders.com"",""zip"":""19116""}";2026-02-05 08:59:20.924605+00;2026-02-05 08:59:20.924605+00;2026-02-05 08:59:20.476+00
ff884b81-82ff-4332-9348-2aad63207602;284320928474;Flag Luxury;flagluxury.com;REAL_ESTATE;650 Madison Ave;New York;New York;10022;;flagluxury.com;"{""address"":""650 Madison Ave"",""city"":""New York"",""createdate"":""2026-02-05T09:42:13.568Z"",""domain"":""flagluxury.com"",""hs_lastmodifieddate"":""2026-02-05T09:42:14.070Z"",""hs_object_id"":""284320928474"",""industry"":""REAL_ESTATE"",""name"":""Flag Luxury"",""phone"":null,""state"":""New York"",""website"":""flagluxury.com"",""zip"":""10022""}";2026-02-05 09:42:16.106466+00;2026-02-05 09:42:16.106466+00;2026-02-05 09:42:15.671+00
0a67aa12-8d3a-4b33-9bd7-f833a0f69ffa;285008427757;SteeleHarbour Capital Partners;steeleharbour.com;INVESTMENT_MANAGEMENT;1775 Tysons Boulevard;Tysons;Virginia;22102;;steeleharbour.com;"{""address"":""1775 Tysons Boulevard"",""city"":""Tysons"",""createdate"":""2026-02-05T09:49:19.196Z"",""domain"":""steeleharbour.com"",""hs_lastmodifieddate"":""2026-02-05T09:49:19.609Z"",""hs_object_id"":""285008427757"",""industry"":""INVESTMENT_MANAGEMENT"",""name"":""SteeleHarbour Capital Partners"",""phone"":null,""state"":""Virginia"",""website"":""steeleharbour.com"",""zip"":""22102""}";2026-02-05 09:49:21.290522+00;2026-02-05 09:49:21.290522+00;2026-02-05 09:49:21.17+00
62584b36-3409-4e89-80dc-a26f1457ef40;284317339323;Assemble;assemble.management;CONSTRUCTION;;Manhattan Beach;CA;;	+13108505510;https://www.assemble.management;"{""address"":null,""city"":""Manhattan Beach"",""createdate"":""2026-02-05T09:58:08.295Z"",""domain"":""assemble.management"",""hs_lastmodifieddate"":""2026-02-05T09:58:08.841Z"",""hs_object_id"":""284317339323"",""industry"":""CONSTRUCTION"",""name"":""Assemble"",""phone"":""+13108505510"",""state"":""CA"",""website"":""https://www.assemble.management"",""zip"":null}";2026-02-05 09:58:10.737349+00;2026-02-05 09:58:10.737349+00;2026-02-05 09:58:10.286+00
e52c1593-68a2-478e-bad3-8459b7544ec9;282866348782;;snsrealtygroup.com;;;;;;	+17736651900;snsrealtygroup.com;"{""address"":null,""city"":null,""createdate"":""2026-02-05T15:58:23.413Z"",""domain"":""snsrealtygroup.com"",""hs_lastmodifieddate"":""2026-02-05T15:58:23.917Z"",""hs_object_id"":""282866348782"",""industry"":null,""name"":null,""phone"":""+17736651900"",""state"":null,""website"":""snsrealtygroup.com"",""zip"":null}";2026-02-05 15:58:26.497966+00;2026-02-05 15:58:26.497966+00;2026-02-05 15:58:26.376+00
d3a4d053-37ae-4e5f-82c1-bb2c94d56aa3;284396200655;MEC Contractors-Engineers;meconstruction.com;;7607 Coral Drive;Melbourne;Florida;32904;;meconstruction.com;"{""address"":""7607 Coral Drive"",""city"":""Melbourne"",""createdate"":""2026-02-05T18:37:34.122Z"",""domain"":""meconstruction.com"",""hs_lastmodifieddate"":""2026-02-05T18:37:34.616Z"",""hs_object_id"":""284396200655"",""industry"":null,""name"":""MEC Contractors-Engineers"",""phone"":null,""state"":""Florida"",""website"":""meconstruction.com"",""zip"":""32904""}";2026-02-05 18:37:35.99402+00;2026-02-05 18:37:35.99402+00;2026-02-05 18:37:35.888+00
64c27d6f-5ce4-429e-a3b7-a75e0bdeed5f;285445666493;;procoretech.com;;;;;;;procoretech.com;"{""address"":null,""city"":null,""createdate"":""2026-02-05T18:37:34.122Z"",""domain"":""procoretech.com"",""hs_lastmodifieddate"":""2026-02-05T18:37:34.584Z"",""hs_object_id"":""285445666493"",""industry"":null,""name"":null,""phone"":null,""state"":null,""website"":""procoretech.com"",""zip"":null}";2026-02-05 18:37:37.549106+00;2026-02-05 18:37:37.549106+00;2026-02-05 18:37:37.08+00
50960f2a-413e-4f65-92e9-7a6cbc96bf1a;285277688511;MEC General Contractors;mec-gc.com;CONSTRUCTION;7607 Coral Drive;Melbourne;Florida;32904;;mec-gc.com;"{""address"":""7607 Coral Drive"",""city"":""Melbourne"",""createdate"":""2026-02-05T18:41:11.479Z"",""domain"":""mec-gc.com"",""hs_lastmodifieddate"":""2026-02-05T18:41:11.896Z"",""hs_object_id"":""285277688511"",""industry"":""CONSTRUCTION"",""name"":""MEC General Contractors"",""phone"":null,""state"":""Florida"",""website"":""mec-gc.com"",""zip"":""32904""}";2026-02-05 18:41:13.36318+00;2026-02-05 18:41:13.36318+00;2026-02-05 18:41:13.231+00
58da5659-f7f9-444e-a5fd-7f33c1ba6651;285499649779;Multifamily Leadership;multifamilyleadership.com;PUBLISHING;20885 North 90th Place;Scottsdale;Arizona;85255;;multifamilyleadership.com;"{""address"":""20885 North 90th Place"",""city"":""Scottsdale"",""createdate"":""2026-02-05T19:15:13.147Z"",""domain"":""multifamilyleadership.com"",""hs_lastmodifieddate"":""2026-02-05T19:15:13.568Z"",""hs_object_id"":""285499649779"",""industry"":""PUBLISHING"",""name"":""Multifamily Leadership"",""phone"":null,""state"":""Arizona"",""website"":""multifamilyleadership.com"",""zip"":""85255""}";2026-02-05 19:15:15.426419+00;2026-02-05 19:15:15.426419+00;2026-02-05 19:15:14.938+00
dbff538d-289e-411c-914f-8a7a7ff4f5e5;291686332092;;kolterhospitality.com;;;;;;	+15616829500;kolterhospitality.com;"{""address"":null,""city"":null,""createdate"":""2026-02-11T20:59:08.741Z"",""domain"":""kolterhospitality.com"",""hs_lastmodifieddate"":""2026-02-11T20:59:09.258Z"",""hs_object_id"":""291686332092"",""industry"":null,""name"":null,""phone"":""+15616829500"",""state"":null,""website"":""kolterhospitality.com"",""zip"":null}";2026-02-11 20:59:10.542132+00;2026-02-11 20:59:10.542132+00;2026-02-11 20:59:10.383+00
88653a77-6ca2-4832-b055-5933fb6c049f;291099344628;Tavros;tavroscapital.com;REAL_ESTATE;27 West 24th Street;New York;New York;10010;;tavroscapital.com;"{""address"":""27 West 24th Street"",""city"":""New York"",""createdate"":""2026-02-11T08:50:07.497Z"",""domain"":""tavroscapital.com"",""hs_lastmodifieddate"":""2026-02-11T12:45:29.094Z"",""hs_object_id"":""291099344628"",""industry"":""REAL_ESTATE"",""name"":""Tavros"",""phone"":null,""state"":""New York"",""website"":""tavroscapital.com"",""zip"":""10010""}";2026-02-11 22:28:21.362904+00;2026-02-11 22:28:21.362904+00;2026-02-11 22:28:20.825+00
47604d5d-fd6e-49c5-9fb6-c501f4e6b233;291101506254;Hazelview Investments;hazelview.com;REAL_ESTATE;1133 Yonge Street;Toronto;Ontario;M4T 2Y7;;hazelview.com;"{""address"":""1133 Yonge Street"",""city"":""Toronto"",""createdate"":""2026-02-11T09:48:38.875Z"",""domain"":""hazelview.com"",""hs_lastmodifieddate"":""2026-02-11T13:46:09.969Z"",""hs_object_id"":""291101506254"",""industry"":""REAL_ESTATE"",""name"":""Hazelview Investments"",""phone"":null,""state"":""Ontario"",""website"":""hazelview.com"",""zip"":""M4T 2Y7""}";2026-02-12 00:09:52.305988+00;2026-02-12 00:09:52.305988+00;2026-02-12 00:09:52.147+00
42a6610c-413b-4f1b-b68f-842c2702eeaa;291100785346;JDM Group Company;jdmgroupcompany.com;MANAGEMENT_CONSULTING;;Houston;Texas;77002;	+17134595699;https://jdmgroupcompany.com;"{""address"":null,""city"":""Houston"",""createdate"":""2026-02-11T09:09:30.857Z"",""domain"":""jdmgroupcompany.com"",""hs_lastmodifieddate"":""2026-02-11T12:45:25.962Z"",""hs_object_id"":""291100785346"",""industry"":""MANAGEMENT_CONSULTING"",""name"":""JDM Group Company"",""phone"":""+17134595699"",""state"":""Texas"",""website"":""https://jdmgroupcompany.com"",""zip"":""77002""}";2026-02-12 02:26:16.087993+00;2026-02-12 02:26:16.087993+00;2026-02-12 02:26:15.611+00
eae495f7-b34e-4966-8f34-679f39954b42;292038602470;PPG;prosperpg.com;COMMERCIAL_REAL_ESTATE;70 Lafayette Street;New York;New York;10013;	+13473417415;https://www.prosperpg.com;"{""address"":""70 Lafayette Street"",""city"":""New York"",""createdate"":""2026-02-12T08:09:57.370Z"",""domain"":""prosperpg.com"",""hs_lastmodifieddate"":""2026-02-12T08:09:57.676Z"",""hs_object_id"":""292038602470"",""industry"":""COMMERCIAL_REAL_ESTATE"",""name"":""PPG"",""phone"":""+13473417415"",""state"":""New York"",""website"":""https://www.prosperpg.com"",""zip"":""10013""}";2026-02-12 08:10:00.009106+00;2026-02-12 08:10:00.009106+00;2026-02-12 08:09:59.858+00
e14d5a18-53c2-4a71-8566-6e6450a7afcf;292450813645;Richman Property Services;richmanmgt.com;CONSUMER_SERVICES;;;Florida;;	+18132620401;richmanmgt.com;"{""address"":null,""city"":null,""createdate"":""2026-02-12T16:45:16.125Z"",""domain"":""richmanmgt.com"",""hs_lastmodifieddate"":""2026-02-12T16:45:19.518Z"",""hs_object_id"":""292450813645"",""industry"":""CONSUMER_SERVICES"",""name"":""Richman Property Services"",""phone"":""+18132620401"",""state"":""Florida"",""website"":""richmanmgt.com"",""zip"":null}";2026-02-12 16:45:22.103469+00;2026-02-12 16:45:22.103469+00;2026-02-12 16:45:21.928+00
47ad61ac-ef17-45c0-989c-4463d6517694;291698311904;Strawberry Brand Studio;strawberrystudio.co;DESIGN;3350 Virginia Street;Miami;Florida;33133;;strawberrystudio.co;"{""address"":""3350 Virginia Street"",""city"":""Miami"",""createdate"":""2026-02-12T18:09:02.275Z"",""domain"":""strawberrystudio.co"",""hs_lastmodifieddate"":""2026-02-12T18:09:02.584Z"",""hs_object_id"":""291698311904"",""industry"":""DESIGN"",""name"":""Strawberry Brand Studio"",""phone"":null,""state"":""Florida"",""website"":""strawberrystudio.co"",""zip"":""33133""}";2026-02-12 18:09:05.427493+00;2026-02-12 18:09:05.427493+00;2026-02-12 18:09:04.975+00
cc1a37c1-5ddd-4840-b80a-1a660c9cfa9b;292619451098;;leedsres.com;REAL_ESTATE;;;;;;leedsres.com;"{""address"":null,""city"":null,""createdate"":""2026-02-12T18:42:08.815Z"",""domain"":""leedsres.com"",""hs_lastmodifieddate"":""2026-02-12T18:42:09.303Z"",""hs_object_id"":""292619451098"",""industry"":""REAL_ESTATE"",""name"":null,""phone"":null,""state"":null,""website"":""leedsres.com"",""zip"":null}";2026-02-12 18:42:12.427247+00;2026-02-12 18:42:12.427247+00;2026-02-12 18:42:11.966+00
f59e70a9-48ad-4fad-a0a8-5a94e558c78c;293169608432;Bay Heights Capital;bayheightscap.com;COMMERCIAL_REAL_ESTATE;3050 Grand Avenue;Miami;Florida;33133;	+18663165300;https://www.bayheightscap.com;"{""address"":""3050 Grand Avenue"",""city"":""Miami"",""createdate"":""2026-02-13T08:06:45.467Z"",""domain"":""bayheightscap.com"",""hs_lastmodifieddate"":""2026-02-13T08:06:46.011Z"",""hs_object_id"":""293169608432"",""industry"":""COMMERCIAL_REAL_ESTATE"",""name"":""Bay Heights Capital"",""phone"":""+18663165300"",""state"":""Florida"",""website"":""https://www.bayheightscap.com"",""zip"":""33133""}";2026-02-13 08:06:47.837202+00;2026-02-13 08:06:47.837202+00;2026-02-13 08:06:47.687+00
1cec050d-be3f-4de1-9192-314d7bd3f00b;293928956626;CTC Residential;ctcresidential.com;CONSTRUCTION;854 Sprucewood Lane;Houston;Texas;77024;	+17135694818;https://ctcresidential.com;"{""address"":""854 Sprucewood Lane"",""city"":""Houston"",""createdate"":""2026-02-13T21:31:34.821Z"",""domain"":""ctcresidential.com"",""hs_lastmodifieddate"":""2026-02-13T21:31:35.471Z"",""hs_object_id"":""293928956626"",""industry"":""CONSTRUCTION"",""name"":""CTC Residential"",""phone"":""+17135694818"",""state"":""Texas"",""website"":""https://ctcresidential.com"",""zip"":""77024""}";2026-02-13 21:31:37.510051+00;2026-02-13 21:31:37.510051+00;2026-02-13 21:31:37.066+00
9558ad44-9379-4fd5-9e77-678a58e52883;295562712799;MICL;micl.com;CONSTRUCTION;;;;;	+912242464246;https://www.micl.com;"{""address"":null,""city"":null,""createdate"":""2026-02-16T08:04:11.750Z"",""domain"":""micl.com"",""hs_lastmodifieddate"":""2026-02-16T08:04:12.203Z"",""hs_object_id"":""295562712799"",""industry"":""CONSTRUCTION"",""name"":""MICL"",""phone"":""+912242464246"",""state"":null,""website"":""https://www.micl.com"",""zip"":null}";2026-02-16 08:04:15.758698+00;2026-02-16 08:04:15.758698+00;2026-02-16 08:04:15.634+00
95bd671b-9dbb-4673-a949-8632578a82b6;294567188176;Ascendra Capital;ascendracap.com;FINANCIAL_SERVICES;9242 Beverly Boulevard;New York;NY;90210;	+1 305-374-3434;https://www.ascendracap.com;"{""address"":""9242 Beverly Boulevard"",""city"":""New York"",""createdate"":""2026-02-16T08:12:04.195Z"",""domain"":""ascendracap.com"",""hs_lastmodifieddate"":""2026-02-16T08:12:04.767Z"",""hs_object_id"":""294567188176"",""industry"":""FINANCIAL_SERVICES"",""name"":""Ascendra Capital"",""phone"":""+1 305-374-3434"",""state"":""NY"",""website"":""https://www.ascendracap.com"",""zip"":""90210""}";2026-02-16 08:12:06.90465+00;2026-02-16 08:12:06.90465+00;2026-02-16 08:12:06.449+00
32c087e1-e811-4abc-9848-0c9bcca0bd38;296232250089;Whitecap;whitecapprojects.com;CONSTRUCTION;;;CA;10019;	+13104761264;https://www.whitecapprojects.com;"{""address"":null,""city"":null,""createdate"":""2026-02-16T08:56:42.235Z"",""domain"":""whitecapprojects.com"",""hs_lastmodifieddate"":""2026-02-16T08:56:42.776Z"",""hs_object_id"":""296232250089"",""industry"":""CONSTRUCTION"",""name"":""Whitecap"",""phone"":""+13104761264"",""state"":""CA"",""website"":""https://www.whitecapprojects.com"",""zip"":""10019""}";2026-02-16 08:56:44.889279+00;2026-02-16 08:56:44.889279+00;2026-02-16 08:56:44.438+00
b34fe9f2-f7ef-4c81-87d5-1049bacb9948;295984931547;Harbert South Bay;harbert.net;Real Estate Development;;Greenbelt;Alabama;20770;	+12059875500;https://harbert.net;"{""address"":null,""city"":""Greenbelt"",""createdate"":""2026-02-16T10:26:37.370Z"",""domain"":""harbert.net"",""hs_lastmodifieddate"":""2026-02-16T10:26:37.828Z"",""hs_object_id"":""295984931547"",""industry"":""Real Estate Development"",""name"":""Harbert South Bay"",""phone"":""+12059875500"",""state"":""Alabama"",""website"":""https://harbert.net"",""zip"":""20770""}";2026-02-16 10:26:39.609699+00;2026-02-16 10:26:39.609699+00;2026-02-16 10:26:39.451+00
506904d7-c7f6-4720-8e04-5885eab45790;296442014452;DaGrosa Capital Partners;dagrosacp.com;CAPITAL_MARKETS;3011 Ponce de Leon;Miami;Florida;33134;	+17866623114;https://dagrosacp.com;"{""address"":""3011 Ponce de Leon"",""city"":""Miami"",""createdate"":""2026-02-16T10:40:45.244Z"",""domain"":""dagrosacp.com"",""hs_lastmodifieddate"":""2026-02-16T10:40:45.774Z"",""hs_object_id"":""296442014452"",""industry"":""CAPITAL_MARKETS"",""name"":""DaGrosa Capital Partners"",""phone"":""+17866623114"",""state"":""Florida"",""website"":""https://dagrosacp.com"",""zip"":""33134""}";2026-02-16 10:40:47.344346+00;2026-02-16 10:40:47.344346+00;2026-02-16 10:40:47.207+00
2be09010-2fad-4431-abcf-57e07e9a528a;294567192253;Aventine Development;aventinedev.com;;;Deerfield Beach;FL;;	+19542813858;https://aventinedev.com;"{""address"":null,""city"":""Deerfield Beach"",""createdate"":""2026-02-16T10:44:17.432Z"",""domain"":""aventinedev.com"",""hs_lastmodifieddate"":""2026-02-16T10:44:17.841Z"",""hs_object_id"":""294567192253"",""industry"":null,""name"":""Aventine Development"",""phone"":""+19542813858"",""state"":""FL"",""website"":""https://aventinedev.com"",""zip"":null}";2026-02-16 10:44:20.194407+00;2026-02-16 10:44:20.194407+00;2026-02-16 10:44:19.655+00